     2.100          NAVIGATION                              RINEX VERSION / TYPE
fic2rin                                 11/17/2015 00:32:12 PGM / RUN BY / DATE
                                                            END OF HEADER
12 15 11 16 23 59 44.0  .345980748534D-03  .306954461848D-11  .000000000000D+00
     .000000000000D+00  .337500000000D+01  .410302805044D-08  .273392547394D+00
     .171363353729D-06  .554733932950D-02  .295042991638D-05  .515357539940D+04
     .172784000000D+06  .502914190292D-07 -.826778423646D+00  .109896063805D-06
     .990175587005D+00  .336937500000D+03  .641512048180D+00 -.814998233662D-08
    -.539308178636D-10  .100000000000D+01  .187100000000D+04  .000000000000D+00
     .240000000000D+01  .000000000000D+00 -.125728547573D-07  .000000000000D+00
     .166236000000D+06  .400000000000D+01
18 15 11 16 23 59 44.0  .453643966466D-03  .375166564481D-11  .000000000000D+00
     .800000000000D+01  .163750000000D+02  .574916804735D-08 -.119688515235D+01
     .123679637909D-05  .163729093038D-01  .615976750851D-05  .515363601303D+04
     .172784000000D+06  .115483999252D-06  .223926233191D+01  .432133674622D-06
     .924807679072D+00  .241375000000D+03 -.192952983150D+01 -.867857578323D-08
     .145363197818D-09  .100000000000D+01  .187100000000D+04  .000000000000D+00
     .240000000000D+01  .000000000000D+00 -.111758708954D-07  .800000000000D+01
     .167706000000D+06  .400000000000D+01
 5 15 11 16 23 59 44.0 -.174031127244D-03  .375166564481D-11  .000000000000D+00
     .700000000000D+01  .143437500000D+02  .519378777068D-08 -.192682360129D+01
     .469386577606D-06  .452819268685D-02  .634230673313D-05  .515367391968D+04
     .172784000000D+06  .484287738800D-07  .225616237264D+01 -.372529029846D-07
     .946212249378D+00  .247531250000D+03  .469226058520D+00 -.832248952224D-08
     .198579700213D-09  .100000000000D+01  .187100000000D+04  .000000000000D+00
     .240000000000D+01  .000000000000D+00 -.107102096081D-07  .700000000000D+01
     .167946000000D+06  .400000000000D+01
10 15 11 16 23 59 44.0  .188439153135D-04  .158024704433D-10  .000000000000D+00
     .250000000000D+02  .151875000000D+02  .476591280511D-08  .103593008057D+01
     .603497028351D-06  .803075265139D-03  .646337866783D-05  .518128371620D+04
     .172784000000D+06  .558793544769D-08  .226110385537D+01  .558793544769D-08
     .959358717347D+00  .250468750000D+03 -.293965772516D+01 -.791604402072D-08
     .122862260563D-09  .100000000000D+01  .187100000000D+04  .000000000000D+00
     .240000000000D+01  .630000000000D+02  .325962901115D-08  .250000000000D+02
     .172536000000D+06  .400000000000D+01
